{
"type": "FeatureCollection",
"name": "centroidi_comuni_montagna_2km",
"crs": { "type": "name", "properties": { "name": "urn:ogc:def:crs:OGC:1.3:CRS84" } },
"features": [
{ "type": "Feature", "properties": { "DIST_BORD": 108358.4375, "TOT_P_2018": 41.0, "TOT_P_2006": 39.0, "GRD_ID": "CRS3035RES2000mN2526000E4436000", "TOT_P_2011": 58.0, "TOT_P_2021": 59.0, "Y_LLC": 2526000, "CNTR_ID": "IT", "NUTS2016_3": "ITH32", "NUTS2016_2": "ITH3", "NUTS2016_1": "ITH", "NUTS2016_0": "IT", "LAND_PC": 100.0, "X_LLC": 4436000, "NUTS2021_3": "ITH32", "NUTS2021_2": "ITH3", "DIST_COAST": 71701.1484375, "NUTS2021_1": "ITH", "NUTS2021_0": "IT", "NUTS2024_3": "ITH32", "NUTS2024_2": "ITH3", "NUTS2024_1": "ITH", "NUTS2024_0": "IT", "codistat": "24009", "nomcom": "Asiago", "provincia": "VI", "area": 162989595.2280142, "perimetro": 109780.338, "id1": 505 }, "geometry": { "type": "Point", "coordinates": [ 11.491462634482435, 45.845316301546632 ] } },
{ "type": "Feature", "properties": { "DIST_BORD": 109819.3125, "TOT_P_2018": 12.0, "TOT_P_2006": 42.0, "GRD_ID": "CRS3035RES2000mN2526000E4440000", "TOT_P_2011": 12.0, "TOT_P_2021": 19.0, "Y_LLC": 2526000, "CNTR_ID": "IT", "NUTS2016_3": "ITH32", "NUTS2016_2": "ITH3", "NUTS2016_1": "ITH", "NUTS2016_0": "IT", "LAND_PC": 100.0, "X_LLC": 4440000, "NUTS2021_3": "ITH32", "NUTS2021_2": "ITH3", "DIST_COAST": 68847.859375, "NUTS2021_1": "ITH", "NUTS2021_0": "IT", "NUTS2024_3": "ITH32", "NUTS2024_2": "ITH3", "NUTS2024_1": "ITH", "NUTS2024_0": "IT", "codistat": "24009", "nomcom": "Asiago", "provincia": "VI", "area": 162989595.2280142, "perimetro": 109780.338, "id1": 505 }, "geometry": { "type": "Point", "coordinates": [ 11.542879834386849, 45.844582152156811 ] } },
{ "type": "Feature", "properties": { "DIST_BORD": 106486.6484375, "TOT_P_2018": 731.0, "TOT_P_2006": 607.0, "GRD_ID": "CRS3035RES2000mN2528000E4436000", "TOT_P_2011": 672.0, "TOT_P_2021": 682.0, "Y_LLC": 2528000, "CNTR_ID": "IT", "NUTS2016_3": "ITH32", "NUTS2016_2": "ITH3", "NUTS2016_1": "ITH", "NUTS2016_0": "IT", "LAND_PC": 100.0, "X_LLC": 4436000, "NUTS2021_3": "ITH32", "NUTS2021_2": "ITH3", "DIST_COAST": 73088.84375, "NUTS2021_1": "ITH", "NUTS2021_0": "IT", "NUTS2024_3": "ITH32", "NUTS2024_2": "ITH3", "NUTS2024_1": "ITH", "NUTS2024_0": "IT", "codistat": "24009", "nomcom": "Asiago", "provincia": "VI", "area": 162989595.2280142, "perimetro": 109780.338, "id1": 505 }, "geometry": { "type": "Point", "coordinates": [ 11.491956414747195, 45.863329925780114 ] } },
{ "type": "Feature", "properties": { "DIST_BORD": 107213.671875, "TOT_P_2018": 999.0, "TOT_P_2006": 870.0, "GRD_ID": "CRS3035RES2000mN2528000E4438000", "TOT_P_2011": 982.0, "TOT_P_2021": 900.0, "Y_LLC": 2528000, "CNTR_ID": "IT", "NUTS2016_3": "ITH32", "NUTS2016_2": "ITH3", "NUTS2016_1": "ITH", "NUTS2016_0": "IT", "LAND_PC": 100.0, "X_LLC": 4438000, "NUTS2021_3": "ITH32", "NUTS2021_2": "ITH3", "DIST_COAST": 71676.109375, "NUTS2021_1": "ITH", "NUTS2021_0": "IT", "NUTS2024_3": "ITH32", "NUTS2024_2": "ITH3", "NUTS2024_1": "ITH", "NUTS2024_0": "IT", "codistat": "24009", "nomcom": "Asiago", "provincia": "VI", "area": 162989595.2280142, "perimetro": 109780.338, "id1": 505 }, "geometry": { "type": "Point", "coordinates": [ 11.517673676903929, 45.862965821278074 ] } },
{ "type": "Feature", "properties": { "DIST_BORD": 107972.8515625, "TOT_P_2018": 517.0, "TOT_P_2006": 826.0, "GRD_ID": "CRS3035RES2000mN2528000E4440000", "TOT_P_2011": 539.0, "TOT_P_2021": 517.0, "Y_LLC": 2528000, "CNTR_ID": "IT", "NUTS2016_3": "ITH32", "NUTS2016_2": "ITH3", "NUTS2016_1": "ITH", "NUTS2016_0": "IT", "LAND_PC": 100.0, "X_LLC": 4440000, "NUTS2021_3": "ITH32", "NUTS2021_2": "ITH3", "DIST_COAST": 70291.8984375, "NUTS2021_1": "ITH", "NUTS2021_0": "IT", "NUTS2024_3": "ITH32", "NUTS2024_2": "ITH3", "NUTS2024_1": "ITH", "NUTS2024_0": "IT", "codistat": "24009", "nomcom": "Asiago", "provincia": "VI", "area": 162989595.2280142, "perimetro": 109780.338, "id1": 505 }, "geometry": { "type": "Point", "coordinates": [ 11.543390625024108, 45.862595495206733 ] } },
{ "type": "Feature", "properties": { "DIST_BORD": 109584.96875, "TOT_P_2018": 74.0, "TOT_P_2006": 0.0, "GRD_ID": "CRS3035RES2000mN2528000E4444000", "TOT_P_2011": 77.0, "TOT_P_2021": 72.0, "Y_LLC": 2528000, "CNTR_ID": "IT", "NUTS2016_3": "ITH32", "NUTS2016_2": "ITH3", "NUTS2016_1": "ITH", "NUTS2016_0": "IT", "LAND_PC": 100.0, "X_LLC": 4444000, "NUTS2021_3": "ITH32", "NUTS2021_2": "ITH3", "DIST_COAST": 67616.0078125, "NUTS2021_1": "ITH", "NUTS2021_0": "IT", "NUTS2024_3": "ITH32", "NUTS2024_2": "ITH3", "NUTS2024_1": "ITH", "NUTS2024_0": "IT", "codistat": "24009", "nomcom": "Asiago", "provincia": "VI", "area": 162989595.2280142, "perimetro": 109780.338, "id1": 505 }, "geometry": { "type": "Point", "coordinates": [ 11.594823558290724, 45.861836178837606 ] } },
{ "type": "Feature", "properties": { "DIST_BORD": 104619.6015625, "TOT_P_2018": 1189.0, "TOT_P_2006": 947.0, "GRD_ID": "CRS3035RES2000mN2530000E4436000", "TOT_P_2011": 1124.0, "TOT_P_2021": 1239.0, "Y_LLC": 2530000, "CNTR_ID": "IT", "NUTS2016_3": "ITH32", "NUTS2016_2": "ITH3", "NUTS2016_1": "ITH", "NUTS2016_0": "IT", "LAND_PC": 100.0, "X_LLC": 4436000, "NUTS2021_3": "ITH32", "NUTS2021_2": "ITH3", "DIST_COAST": 74504.3828125, "NUTS2021_1": "ITH", "NUTS2021_0": "IT", "NUTS2024_3": "ITH32", "NUTS2024_2": "ITH3", "NUTS2024_1": "ITH", "NUTS2024_0": "IT", "codistat": "24009", "nomcom": "Asiago", "provincia": "VI", "area": 162989595.2280142, "perimetro": 109780.338, "id1": 505 }, "geometry": { "type": "Point", "coordinates": [ 11.492450620307785, 45.881343343981314 ] } },
{ "type": "Feature", "properties": { "DIST_BORD": 105359.5078125, "TOT_P_2018": 2687.0, "TOT_P_2006": 3380.0, "GRD_ID": "CRS3035RES2000mN2530000E4438000", "TOT_P_2011": 2748.0, "TOT_P_2021": 2610.0, "Y_LLC": 2530000, "CNTR_ID": "IT", "NUTS2016_3": "ITH32", "NUTS2016_2": "ITH3", "NUTS2016_1": "ITH", "NUTS2016_0": "IT", "LAND_PC": 100.0, "X_LLC": 4438000, "NUTS2021_3": "ITH32", "NUTS2021_2": "ITH3", "DIST_COAST": 73119.0078125, "NUTS2021_1": "ITH", "NUTS2021_0": "IT", "NUTS2024_3": "ITH32", "NUTS2024_2": "ITH3", "NUTS2024_1": "ITH", "NUTS2024_0": "IT", "codistat": "24009", "nomcom": "Asiago", "provincia": "VI", "area": 162989595.2280142, "perimetro": 109780.338, "id1": 505 }, "geometry": { "type": "Point", "coordinates": [ 11.518176395057877, 45.880979099975896 ] } },
{ "type": "Feature", "properties": { "DIST_BORD": 102757.5625, "TOT_P_2018": 192.0, "TOT_P_2006": 141.0, "GRD_ID": "CRS3035RES2000mN2532000E4436000", "TOT_P_2011": 187.0, "TOT_P_2021": 215.0, "Y_LLC": 2532000, "CNTR_ID": "IT", "NUTS2016_3": "ITH32", "NUTS2016_2": "ITH3", "NUTS2016_1": "ITH", "NUTS2016_0": "IT", "LAND_PC": 100.0, "X_LLC": 4436000, "NUTS2021_3": "ITH32", "NUTS2021_2": "ITH3", "DIST_COAST": 75946.2109375, "NUTS2021_1": "ITH", "NUTS2021_0": "IT", "NUTS2024_3": "ITH32", "NUTS2024_2": "ITH3", "NUTS2024_1": "ITH", "NUTS2024_0": "IT", "codistat": "24009", "nomcom": "Asiago", "provincia": "VI", "area": 162989595.2280142, "perimetro": 109780.338, "id1": 505 }, "geometry": { "type": "Point", "coordinates": [ 11.492945251521308, 45.899356556585957 ] } },
{ "type": "Feature", "properties": { "DIST_BORD": 103510.78125, "TOT_P_2018": 397.0, "TOT_P_2006": 146.0, "GRD_ID": "CRS3035RES2000mN2532000E4438000", "TOT_P_2011": 406.0, "TOT_P_2021": 440.0, "Y_LLC": 2532000, "CNTR_ID": "IT", "NUTS2016_3": "ITH32", "NUTS2016_2": "ITH3", "NUTS2016_1": "ITH", "NUTS2016_0": "IT", "LAND_PC": 100.0, "X_LLC": 4438000, "NUTS2021_3": "ITH32", "NUTS2021_2": "ITH3", "DIST_COAST": 74587.6171875, "NUTS2021_1": "ITH", "NUTS2021_0": "IT", "NUTS2024_3": "ITH32", "NUTS2024_2": "ITH3", "NUTS2024_1": "ITH", "NUTS2024_0": "IT", "codistat": "24009", "nomcom": "Asiago", "provincia": "VI", "area": 162989595.2280142, "perimetro": 109780.338, "id1": 505 }, "geometry": { "type": "Point", "coordinates": [ 11.518679546345128, 45.898992172976307 ] } },
{ "type": "Feature", "properties": { "DIST_BORD": 108637.3984375, "TOT_P_2018": 348.0, "TOT_P_2006": 124.0, "GRD_ID": "CRS3035RES2000mN2530000E4446000", "TOT_P_2011": 356.0, "TOT_P_2021": 334.0, "Y_LLC": 2530000, "CNTR_ID": "IT", "NUTS2016_3": "ITH32", "NUTS2016_2": "ITH3", "NUTS2016_1": "ITH", "NUTS2016_0": "IT", "LAND_PC": 100.0, "X_LLC": 4446000, "NUTS2021_3": "ITH32", "NUTS2021_2": "ITH3", "DIST_COAST": 67884.71875, "NUTS2021_1": "ITH", "NUTS2021_0": "IT", "NUTS2024_3": "ITH32", "NUTS2024_2": "ITH3", "NUTS2024_1": "ITH", "NUTS2024_0": "IT", "codistat": "24041", "nomcom": "Foza", "provincia": "VI", "area": 35178309.576784737, "perimetro": 27500.787, "id1": 484 }, "geometry": { "type": "Point", "coordinates": [ 11.621076297500881, 45.879459885572338 ] } },
{ "type": "Feature", "properties": { "DIST_BORD": 108801.6796875, "TOT_P_2018": 42.0, "TOT_P_2006": 0.0, "GRD_ID": "CRS3035RES2000mN2530000E4448000", "TOT_P_2011": 45.0, "TOT_P_2021": 39.0, "Y_LLC": 2530000, "CNTR_ID": "IT", "NUTS2016_3": "ITH32", "NUTS2016_2": "ITH3", "NUTS2016_1": "ITH", "NUTS2016_0": "IT", "LAND_PC": 100.0, "X_LLC": 4448000, "NUTS2021_3": "ITH32", "NUTS2021_2": "ITH3", "DIST_COAST": 66430.5703125, "NUTS2021_1": "ITH", "NUTS2021_0": "IT", "NUTS2024_3": "ITH32", "NUTS2024_2": "ITH3", "NUTS2024_1": "ITH", "NUTS2024_0": "IT", "codistat": "24041", "nomcom": "Foza", "provincia": "VI", "area": 35178309.576784737, "perimetro": 27500.787, "id1": 484 }, "geometry": { "type": "Point", "coordinates": [ 11.646800447331637, 45.879064522994454 ] } },
{ "type": "Feature", "properties": { "DIST_BORD": 106845.3984375, "TOT_P_2018": 355.0, "TOT_P_2006": 719.0, "GRD_ID": "CRS3035RES2000mN2532000E4446000", "TOT_P_2011": 354.0, "TOT_P_2021": 297.0, "Y_LLC": 2532000, "CNTR_ID": "IT", "NUTS2016_3": "ITH32", "NUTS2016_2": "ITH3", "NUTS2016_1": "ITH", "NUTS2016_0": "IT", "LAND_PC": 100.0, "X_LLC": 4446000, "NUTS2021_3": "ITH32", "NUTS2021_2": "ITH3", "DIST_COAST": 69251.078125, "NUTS2021_1": "ITH", "NUTS2021_0": "IT", "NUTS2024_3": "ITH32", "NUTS2024_2": "ITH3", "NUTS2024_1": "ITH", "NUTS2024_0": "IT", "codistat": "24041", "nomcom": "Foza", "provincia": "VI", "area": 35178309.576784737, "perimetro": 27500.787, "id1": 484 }, "geometry": { "type": "Point", "coordinates": [ 11.621613524618477, 45.897472376146375 ] } },
{ "type": "Feature", "properties": { "DIST_BORD": 107100.3828125, "TOT_P_2018": 210.0, "TOT_P_2006": 7.0, "GRD_ID": "CRS3035RES2000mN2532000E4448000", "TOT_P_2011": 222.0, "TOT_P_2021": 230.0, "Y_LLC": 2532000, "CNTR_ID": "IT", "NUTS2016_3": "ITH32", "NUTS2016_2": "ITH3", "NUTS2016_1": "ITH", "NUTS2016_0": "IT", "LAND_PC": 100.0, "X_LLC": 4448000, "NUTS2021_3": "ITH32", "NUTS2021_2": "ITH3", "DIST_COAST": 67749.7109375, "NUTS2021_1": "ITH", "NUTS2021_0": "IT", "NUTS2024_3": "ITH32", "NUTS2024_2": "ITH3", "NUTS2024_1": "ITH", "NUTS2024_0": "IT", "codistat": "24041", "nomcom": "Foza", "provincia": "VI", "area": 35178309.576784737, "perimetro": 27500.787, "id1": 484 }, "geometry": { "type": "Point", "coordinates": [ 11.647346192301809, 45.897076862061724 ] } },
{ "type": "Feature", "properties": { "DIST_BORD": 105409.5625, "TOT_P_2018": 30.0, "TOT_P_2006": 0.0, "GRD_ID": "CRS3035RES2000mN2534000E4448000", "TOT_P_2011": 30.0, "TOT_P_2021": 29.0, "Y_LLC": 2534000, "CNTR_ID": "IT", "NUTS2016_3": "ITH32", "NUTS2016_2": "ITH3", "NUTS2016_1": "ITH", "NUTS2016_0": "IT", "LAND_PC": 100.0, "X_LLC": 4448000, "NUTS2021_3": "ITH32", "NUTS2021_2": "ITH3", "DIST_COAST": 69101.5625, "NUTS2021_1": "ITH", "NUTS2021_0": "IT", "NUTS2024_3": "ITH32", "NUTS2024_2": "ITH3", "NUTS2024_1": "ITH", "NUTS2024_0": "IT", "codistat": "24041", "nomcom": "Foza", "provincia": "VI", "area": 35178309.576784737, "perimetro": 27500.787, "id1": 484 }, "geometry": { "type": "Point", "coordinates": [ 11.64789240761014, 45.915088995183012 ] } },
{ "type": "Feature", "properties": { "DIST_BORD": 108763.5078125, "TOT_P_2018": 68.0, "TOT_P_2006": 79.0, "GRD_ID": "CRS3035RES2000mN2528000E4442000", "TOT_P_2011": 71.0, "TOT_P_2021": 68.0, "Y_LLC": 2528000, "CNTR_ID": "IT", "NUTS2016_3": "ITH32", "NUTS2016_2": "ITH3", "NUTS2016_1": "ITH", "NUTS2016_0": "IT", "LAND_PC": 100.0, "X_LLC": 4442000, "NUTS2021_3": "ITH32", "NUTS2021_2": "ITH3", "DIST_COAST": 68937.9296875, "NUTS2021_1": "ITH", "NUTS2021_0": "IT", "NUTS2024_3": "ITH32", "NUTS2024_2": "ITH3", "NUTS2024_1": "ITH", "NUTS2024_0": "IT", "codistat": "24042", "nomcom": "Gallio", "provincia": "VI", "area": 47549661.459931761, "perimetro": 33944.43, "id1": 490 }, "geometry": { "type": "Point", "coordinates": [ 11.569107253938798, 45.86221894769259 ] } },
{ "type": "Feature", "properties": { "DIST_BORD": 106131.953125, "TOT_P_2018": 614.0, "TOT_P_2006": 751.0, "GRD_ID": "CRS3035RES2000mN2530000E4440000", "TOT_P_2011": 633.0, "TOT_P_2021": 606.0, "Y_LLC": 2530000, "CNTR_ID": "IT", "NUTS2016_3": "ITH32", "NUTS2016_2": "ITH3", "NUTS2016_1": "ITH", "NUTS2016_0": "IT", "LAND_PC": 100.0, "X_LLC": 4440000, "NUTS2021_3": "ITH32", "NUTS2021_2": "ITH3", "DIST_COAST": 71762.6328125, "NUTS2021_1": "ITH", "NUTS2021_0": "IT", "NUTS2024_3": "ITH32", "NUTS2024_2": "ITH3", "NUTS2024_1": "ITH", "NUTS2024_0": "IT", "codistat": "24042", "nomcom": "Gallio", "provincia": "VI", "area": 47549661.459931761, "perimetro": 33944.43, "id1": 490 }, "geometry": { "type": "Point", "coordinates": [ 11.54390185552279, 45.880608632012773 ] } },
{ "type": "Feature", "properties": { "DIST_BORD": 106936.21875, "TOT_P_2018": 26.0, "TOT_P_2006": 75.0, "GRD_ID": "CRS3035RES2000mN2530000E4442000", "TOT_P_2011": 23.0, "TOT_P_2021": 21.0, "Y_LLC": 2530000, "CNTR_ID": "IT", "NUTS2016_3": "ITH32", "NUTS2016_2": "ITH3", "NUTS2016_1": "ITH", "NUTS2016_0": "IT", "LAND_PC": 100.0, "X_LLC": 4442000, "NUTS2021_3": "ITH32", "NUTS2021_2": "ITH3", "DIST_COAST": 70436.9375, "NUTS2021_1": "ITH", "NUTS2021_0": "IT", "NUTS2024_3": "ITH32", "NUTS2024_2": "ITH3", "NUTS2024_1": "ITH", "NUTS2024_0": "IT", "codistat": "24042", "nomcom": "Gallio", "provincia": "VI", "area": 47549661.459931761, "perimetro": 33944.43, "id1": 490 }, "geometry": { "type": "Point", "coordinates": [ 11.569626996304187, 45.88023194020699 ] } },
{ "type": "Feature", "properties": { "DIST_BORD": 107771.609375, "TOT_P_2018": 72.0, "TOT_P_2006": 46.0, "GRD_ID": "CRS3035RES2000mN2530000E4444000", "TOT_P_2011": 74.0, "TOT_P_2021": 57.0, "Y_LLC": 2530000, "CNTR_ID": "IT", "NUTS2016_3": "ITH32", "NUTS2016_2": "ITH3", "NUTS2016_1": "ITH", "NUTS2016_0": "IT", "LAND_PC": 100.0, "X_LLC": 4444000, "NUTS2021_3": "ITH32", "NUTS2021_2": "ITH3", "DIST_COAST": 69143.6796875, "NUTS2021_1": "ITH", "NUTS2021_0": "IT", "NUTS2024_3": "ITH32", "NUTS2024_2": "ITH3", "NUTS2024_1": "ITH", "NUTS2024_0": "IT", "codistat": "24042", "nomcom": "Gallio", "provincia": "VI", "area": 47549661.459931761, "perimetro": 33944.43, "id1": 490 }, "geometry": { "type": "Point", "coordinates": [ 11.595351812036487, 45.879849024690834 ] } },
{ "type": "Feature", "properties": { "DIST_BORD": 104296.90625, "TOT_P_2018": 1044.0, "TOT_P_2006": 1297.0, "GRD_ID": "CRS3035RES2000mN2532000E4440000", "TOT_P_2011": 1062.0, "TOT_P_2021": 1083.0, "Y_LLC": 2532000, "CNTR_ID": "IT", "NUTS2016_3": "ITH32", "NUTS2016_2": "ITH3", "NUTS2016_1": "ITH", "NUTS2016_0": "IT", "LAND_PC": 100.0, "X_LLC": 4440000, "NUTS2021_3": "ITH32", "NUTS2021_2": "ITH3", "DIST_COAST": 73258.4375, "NUTS2021_1": "ITH", "NUTS2021_0": "IT", "NUTS2024_3": "ITH32", "NUTS2024_2": "ITH3", "NUTS2024_1": "ITH", "NUTS2024_0": "IT", "codistat": "24042", "nomcom": "Gallio", "provincia": "VI", "area": 47549661.459931761, "perimetro": 33944.43, "id1": 490 }, "geometry": { "type": "Point", "coordinates": [ 11.544413526410544, 45.898621562986591 ] } },
{ "type": "Feature", "properties": { "DIST_BORD": 105115.2265625, "TOT_P_2018": 102.0, "TOT_P_2006": 1.0, "GRD_ID": "CRS3035RES2000mN2532000E4442000", "TOT_P_2011": 106.0, "TOT_P_2021": 137.0, "Y_LLC": 2532000, "CNTR_ID": "IT", "NUTS2016_3": "ITH32", "NUTS2016_2": "ITH3", "NUTS2016_1": "ITH", "NUTS2016_0": "IT", "LAND_PC": 100.0, "X_LLC": 4442000, "NUTS2021_3": "ITH32", "NUTS2021_2": "ITH3", "DIST_COAST": 71960.3125, "NUTS2021_1": "ITH", "NUTS2021_0": "IT", "NUTS2024_3": "ITH32", "NUTS2024_2": "ITH3", "NUTS2024_1": "ITH", "NUTS2024_0": "IT", "codistat": "24042", "nomcom": "Gallio", "provincia": "VI", "area": 47549661.459931761, "perimetro": 33944.43, "id1": 490 }, "geometry": { "type": "Point", "coordinates": [ 11.570147186293401, 45.8982447267407 ] } },
{ "type": "Feature", "properties": { "DIST_BORD": 105964.96875, "TOT_P_2018": 114.0, "TOT_P_2006": 0.0, "GRD_ID": "CRS3035RES2000mN2532000E4444000", "TOT_P_2011": 74.0, "TOT_P_2021": 59.0, "Y_LLC": 2532000, "CNTR_ID": "IT", "NUTS2016_3": "ITH32", "NUTS2016_2": "ITH3", "NUTS2016_1": "ITH", "NUTS2016_0": "IT", "LAND_PC": 100.0, "X_LLC": 4444000, "NUTS2021_3": "ITH32", "NUTS2021_2": "ITH3", "DIST_COAST": 70694.921875, "NUTS2021_1": "ITH", "NUTS2021_0": "IT", "NUTS2024_3": "ITH32", "NUTS2024_2": "ITH3", "NUTS2024_1": "ITH", "NUTS2024_0": "IT", "codistat": "24042", "nomcom": "Gallio", "provincia": "VI", "area": 47549661.459931761, "perimetro": 33944.43, "id1": 490 }, "geometry": { "type": "Point", "coordinates": [ 11.595880520896536, 45.89786166443951 ] } },
{ "type": "Feature", "properties": { "DIST_BORD": 103300.8515625, "TOT_P_2018": 0.0, "TOT_P_2006": 0.0, "GRD_ID": "CRS3035RES2000mN2534000E4442000", "TOT_P_2011": 0.0, "TOT_P_2021": 1.0, "Y_LLC": 2534000, "CNTR_ID": "IT", "NUTS2016_3": "ITH32", "NUTS2016_2": "ITH3", "NUTS2016_1": "ITH", "NUTS2016_0": "IT", "LAND_PC": 100.0, "X_LLC": 4442000, "NUTS2021_3": "ITH32", "NUTS2021_2": "ITH3", "DIST_COAST": 73506.53125, "NUTS2021_1": "ITH", "NUTS2021_0": "IT", "NUTS2024_3": "ITH32", "NUTS2024_2": "ITH3", "NUTS2024_1": "ITH", "NUTS2024_0": "IT", "codistat": "24042", "nomcom": "Gallio", "provincia": "VI", "area": 47549661.459931761, "perimetro": 33944.43, "id1": 490 }, "geometry": { "type": "Point", "coordinates": [ 11.570667824692533, 45.916257307820182 ] } },
{ "type": "Feature", "properties": { "DIST_BORD": 106054.1796875, "TOT_P_2018": 88.0, "TOT_P_2006": 4.0, "GRD_ID": "CRS3035RES2000mN2532000E4450000", "TOT_P_2011": 44.0, "TOT_P_2021": 24.0, "Y_LLC": 2532000, "CNTR_ID": "IT", "NUTS2016_3": "ITH32", "NUTS2016_2": "ITH3", "NUTS2016_1": "ITH", "NUTS2016_0": "IT", "LAND_PC": 100.0, "X_LLC": 4450000, "NUTS2021_3": "ITH32", "NUTS2021_2": "ITH3", "DIST_COAST": 66274.6796875, "NUTS2021_1": "ITH", "NUTS2021_0": "IT", "NUTS2024_3": "ITH32", "NUTS2024_2": "ITH3", "NUTS2024_1": "ITH", "NUTS2024_0": "IT", "codistat": "24039", "nomcom": "Enego", "provincia": "VI", "area": 52881599.523270711, "perimetro": 42025.258, "id1": 497 }, "geometry": { "type": "Point", "coordinates": [ 11.673078518713996, 45.896675122209999 ] } },
{ "type": "Feature", "properties": { "DIST_BORD": 104346.40625, "TOT_P_2018": 140.0, "TOT_P_2006": 71.0, "GRD_ID": "CRS3035RES2000mN2534000E4450000", "TOT_P_2011": 128.0, "TOT_P_2021": 94.0, "Y_LLC": 2534000, "CNTR_ID": "IT", "NUTS2016_3": "ITH32", "NUTS2016_2": "ITH3", "NUTS2016_1": "ITH", "NUTS2016_0": "IT", "LAND_PC": 100.0, "X_LLC": 4450000, "NUTS2021_3": "ITH32", "NUTS2021_2": "ITH3", "DIST_COAST": 67656.0078125, "NUTS2021_1": "ITH", "NUTS2021_0": "IT", "NUTS2024_3": "ITH32", "NUTS2024_2": "ITH3", "NUTS2024_1": "ITH", "NUTS2024_0": "IT", "codistat": "24039", "nomcom": "Enego", "provincia": "VI", "area": 52881599.523270711, "perimetro": 42025.258, "id1": 497 }, "geometry": { "type": "Point", "coordinates": [ 11.673633258664916, 45.914687101317043 ] } },
{ "type": "Feature", "properties": { "DIST_BORD": 103311.0390625, "TOT_P_2018": 4.0, "TOT_P_2006": 0.0, "GRD_ID": "CRS3035RES2000mN2534000E4452000", "TOT_P_2011": 2.0, "TOT_P_2021": 3.0, "Y_LLC": 2534000, "CNTR_ID": "IT", "NUTS2016_3": "ITH32", "NUTS2016_2": "ITH3", "NUTS2016_1": "ITH", "NUTS2016_0": "IT", "LAND_PC": 100.0, "X_LLC": 4452000, "NUTS2021_3": "ITH32", "NUTS2021_2": "ITH3", "DIST_COAST": 66239.3125, "NUTS2021_1": "ITH", "NUTS2021_0": "IT", "NUTS2024_3": "ITH32", "NUTS2024_2": "ITH3", "NUTS2024_1": "ITH", "NUTS2024_0": "IT", "codistat": "24039", "nomcom": "Enego", "provincia": "VI", "area": 52881599.523270711, "perimetro": 42025.258, "id1": 497 }, "geometry": { "type": "Point", "coordinates": [ 11.699373762588284, 45.91427897944191 ] } },
{ "type": "Feature", "properties": { "DIST_BORD": 103729.75, "TOT_P_2018": 0.0, "TOT_P_2006": 0.0, "GRD_ID": "CRS3035RES2000mN2536000E4448000", "TOT_P_2011": 0.0, "TOT_P_2021": 1.0, "Y_LLC": 2536000, "CNTR_ID": "IT", "NUTS2016_3": "ITH32", "NUTS2016_2": "ITH3", "NUTS2016_1": "ITH", "NUTS2016_0": "IT", "LAND_PC": 100.0, "X_LLC": 4448000, "NUTS2021_3": "ITH32", "NUTS2021_2": "ITH3", "DIST_COAST": 70484.2265625, "NUTS2021_1": "ITH", "NUTS2021_0": "IT", "NUTS2024_3": "ITH32", "NUTS2024_2": "ITH3", "NUTS2024_1": "ITH", "NUTS2024_0": "IT", "codistat": "24039", "nomcom": "Enego", "provincia": "VI", "area": 52881599.523270711, "perimetro": 42025.258, "id1": 497 }, "geometry": { "type": "Point", "coordinates": [ 11.648439093698979, 45.933100922879198 ] } },
{ "type": "Feature", "properties": { "DIST_BORD": 102649.203125, "TOT_P_2018": 9.0, "TOT_P_2006": 0.0, "GRD_ID": "CRS3035RES2000mN2536000E4450000", "TOT_P_2011": 10.0, "TOT_P_2021": 6.0, "Y_LLC": 2536000, "CNTR_ID": "IT", "NUTS2016_3": "ITH32", "NUTS2016_2": "ITH3", "NUTS2016_1": "ITH", "NUTS2016_0": "IT", "LAND_PC": 100.0, "X_LLC": 4450000, "NUTS2021_3": "ITH32", "NUTS2021_2": "ITH3", "DIST_COAST": 69067.6328125, "NUTS2021_1": "ITH", "NUTS2021_0": "IT", "NUTS2024_3": "ITH32", "NUTS2024_2": "ITH3", "NUTS2024_1": "ITH", "NUTS2024_0": "IT", "codistat": "24039", "nomcom": "Enego", "provincia": "VI", "area": 52881599.523270711, "perimetro": 42025.258, "id1": 497 }, "geometry": { "type": "Point", "coordinates": [ 11.674188476835893, 45.932698874736914 ] } },
{ "type": "Feature", "properties": { "DIST_BORD": 101596.5390625, "TOT_P_2018": 610.0, "TOT_P_2006": 1027.0, "GRD_ID": "CRS3035RES2000mN2536000E4452000", "TOT_P_2011": 712.0, "TOT_P_2021": 491.0, "Y_LLC": 2536000, "CNTR_ID": "IT", "NUTS2016_3": "ITH32-ITH33", "NUTS2016_2": "ITH3", "NUTS2016_1": "ITH", "NUTS2016_0": "IT", "LAND_PC": 100.0, "X_LLC": 4452000, "NUTS2021_3": "ITH32-ITH33", "NUTS2021_2": "ITH3", "DIST_COAST": 67680.4921875, "NUTS2021_1": "ITH", "NUTS2021_0": "IT", "NUTS2024_3": "ITH32-ITH33", "NUTS2024_2": "ITH3", "NUTS2024_1": "ITH", "NUTS2024_0": "IT", "codistat": "24039", "nomcom": "Enego", "provincia": "VI", "area": 52881599.523270711, "perimetro": 42025.258, "id1": 497 }, "geometry": { "type": "Point", "coordinates": [ 11.699937512403118, 45.93229059629703 ] } },
{ "type": "Feature", "properties": { "DIST_BORD": 100963.078125, "TOT_P_2018": 16.0, "TOT_P_2006": 0.0, "GRD_ID": "CRS3035RES2000mN2538000E4450000", "TOT_P_2011": 19.0, "TOT_P_2021": 6.0, "Y_LLC": 2538000, "CNTR_ID": "IT", "NUTS2016_3": "ITH20-ITH32", "NUTS2016_2": "ITH2-ITH3", "NUTS2016_1": "ITH", "NUTS2016_0": "IT", "LAND_PC": 100.0, "X_LLC": 4450000, "NUTS2021_3": "ITH20-ITH32", "NUTS2021_2": "ITH2-ITH3", "DIST_COAST": 70507.7265625, "NUTS2021_1": "ITH", "NUTS2021_0": "IT", "NUTS2024_3": "ITH20-ITH32", "NUTS2024_2": "ITH2-ITH3", "NUTS2024_1": "ITH", "NUTS2024_0": "IT", "codistat": "24039", "nomcom": "Enego", "provincia": "VI", "area": 52881599.523270711, "perimetro": 42025.258, "id1": 497 }, "geometry": { "type": "Point", "coordinates": [ 11.674744173771218, 45.950710443085313 ] } },
{ "type": "Feature", "properties": { "DIST_BORD": 99892.6484375, "TOT_P_2018": 563.0, "TOT_P_2006": 499.0, "GRD_ID": "CRS3035RES2000mN2538000E4452000", "TOT_P_2011": 644.0, "TOT_P_2021": 672.0, "Y_LLC": 2538000, "CNTR_ID": "IT", "NUTS2016_3": "ITH20-ITH32-ITH33", "NUTS2016_2": "ITH2-ITH3", "NUTS2016_1": "ITH", "NUTS2016_0": "IT", "LAND_PC": 100.0, "X_LLC": 4452000, "NUTS2021_3": "ITH20-ITH32-ITH33", "NUTS2021_2": "ITH2-ITH3", "DIST_COAST": 69149.4765625, "NUTS2021_1": "ITH", "NUTS2021_0": "IT", "NUTS2024_3": "ITH20-ITH32-ITH33", "NUTS2024_2": "ITH2-ITH3", "NUTS2024_1": "ITH", "NUTS2024_0": "IT", "codistat": "24039", "nomcom": "Enego", "provincia": "VI", "area": 52881599.523270711, "perimetro": 42025.258, "id1": 497 }, "geometry": { "type": "Point", "coordinates": [ 11.700501748332547, 45.950302007862227 ] } },
{ "type": "Feature", "properties": { "DIST_BORD": 112756.21875, "TOT_P_2018": 3233.0, "TOT_P_2006": 2587.0, "GRD_ID": "CRS3035RES2000mN2522000E4454000", "TOT_P_2011": 3215.0, "TOT_P_2021": 3084.0, "Y_LLC": 2522000, "CNTR_ID": "IT", "NUTS2016_3": "ITH32-ITH34", "NUTS2016_2": "ITH3", "NUTS2016_1": "ITH", "NUTS2016_0": "IT", "LAND_PC": 100.0, "X_LLC": 4454000, "NUTS2021_3": "ITH32-ITH34", "NUTS2021_2": "ITH3", "DIST_COAST": 56662.03125, "NUTS2021_1": "ITH", "NUTS2021_0": "IT", "NUTS2024_3": "ITH32-ITH34", "NUTS2024_2": "ITH3", "NUTS2024_1": "ITH", "NUTS2024_0": "IT", "codistat": "24081", "nomcom": "Pove del Grappa", "provincia": "VI", "area": 9810479.0270425063, "perimetro": 30187.24, "id1": 457 }, "geometry": { "type": "Point", "coordinates": [ 11.721690557125706, 45.80579154352121 ] } },
{ "type": "Feature", "properties": { "DIST_BORD": 106525.34375, "TOT_P_2018": 9.0, "TOT_P_2006": 0.0, "GRD_ID": "CRS3035RES2000mN2528000E4456000", "TOT_P_2011": 9.0, "TOT_P_2021": 3.0, "Y_LLC": 2528000, "CNTR_ID": "IT", "NUTS2016_3": "ITH32-ITH34", "NUTS2016_2": "ITH3", "NUTS2016_1": "ITH", "NUTS2016_0": "IT", "LAND_PC": 100.0, "X_LLC": 4456000, "NUTS2021_3": "ITH32-ITH34", "NUTS2021_2": "ITH3", "DIST_COAST": 59171.4609375, "NUTS2021_1": "ITH", "NUTS2021_0": "IT", "NUTS2024_3": "ITH32-ITH34", "NUTS2024_2": "ITH3", "NUTS2024_1": "ITH", "NUTS2024_0": "IT", "codistat": "24081", "nomcom": "Pove del Grappa", "provincia": "VI", "area": 9810479.0270425063, "perimetro": 30187.24, "id1": 457 }, "geometry": { "type": "Point", "coordinates": [ 11.749114271273408, 45.859408924927294 ] } },
{ "type": "Feature", "properties": { "DIST_BORD": 109564.28125, "TOT_P_2018": 73.0, "TOT_P_2006": 82.0, "GRD_ID": "CRS3035RES2000mN2524000E4434000", "TOT_P_2011": 79.0, "TOT_P_2021": 64.0, "Y_LLC": 2524000, "CNTR_ID": "IT", "NUTS2016_3": "ITH32", "NUTS2016_2": "ITH3", "NUTS2016_1": "ITH", "NUTS2016_0": "IT", "LAND_PC": 100.0, "X_LLC": 4434000, "NUTS2021_3": "ITH32", "NUTS2021_2": "ITH3", "DIST_COAST": 71837.6328125, "NUTS2021_1": "ITH", "NUTS2021_0": "IT", "NUTS2024_3": "ITH32", "NUTS2024_2": "ITH3", "NUTS2024_1": "ITH", "NUTS2024_0": "IT", "codistat": "24085", "nomcom": "Roana", "provincia": "VI", "area": 78485335.906073868, "perimetro": 56752.784, "id1": 488 }, "geometry": { "type": "Point", "coordinates": [ 11.465268712415419, 45.827660079778269 ] } },
{ "type": "Feature", "properties": { "DIST_BORD": 106175.5703125, "TOT_P_2018": 266.0, "TOT_P_2006": 200.0, "GRD_ID": "CRS3035RES2000mN2526000E4430000", "TOT_P_2011": 288.0, "TOT_P_2021": 288.0, "Y_LLC": 2526000, "CNTR_ID": "IT", "NUTS2016_3": "ITH32", "NUTS2016_2": "ITH3", "NUTS2016_1": "ITH", "NUTS2016_0": "IT", "LAND_PC": 100.0, "X_LLC": 4430000, "NUTS2021_3": "ITH32", "NUTS2021_2": "ITH3", "DIST_COAST": 76174.7734375, "NUTS2021_1": "ITH", "NUTS2021_0": "IT", "NUTS2024_3": "ITH32", "NUTS2024_2": "ITH3", "NUTS2024_1": "ITH", "NUTS2024_0": "IT", "codistat": "24085", "nomcom": "Roana", "provincia": "VI", "area": 78485335.906073868, "perimetro": 56752.784, "id1": 488 }, "geometry": { "type": "Point", "coordinates": [ 11.414334536163214, 45.846370880415975 ] } },
{ "type": "Feature", "properties": { "DIST_BORD": 107027.203125, "TOT_P_2018": 475.0, "TOT_P_2006": 485.0, "GRD_ID": "CRS3035RES2000mN2526000E4432000", "TOT_P_2011": 505.0, "TOT_P_2021": 507.0, "Y_LLC": 2526000, "CNTR_ID": "IT", "NUTS2016_3": "ITH32", "NUTS2016_2": "ITH3", "NUTS2016_1": "ITH", "NUTS2016_0": "IT", "LAND_PC": 100.0, "X_LLC": 4432000, "NUTS2021_3": "ITH32", "NUTS2021_2": "ITH3", "DIST_COAST": 74659.7734375, "NUTS2021_1": "ITH", "NUTS2021_0": "IT", "NUTS2024_3": "ITH32", "NUTS2024_2": "ITH3", "NUTS2024_1": "ITH", "NUTS2024_0": "IT", "codistat": "24085", "nomcom": "Roana", "provincia": "VI", "area": 78485335.906073868, "perimetro": 56752.784, "id1": 488 }, "geometry": { "type": "Point", "coordinates": [ 11.44004420164813, 45.846025573640659 ] } },
{ "type": "Feature", "properties": { "DIST_BORD": 107676.296875, "TOT_P_2018": 393.0, "TOT_P_2006": 615.0, "GRD_ID": "CRS3035RES2000mN2526000E4434000", "TOT_P_2011": 421.0, "TOT_P_2021": 342.0, "Y_LLC": 2526000, "CNTR_ID": "IT", "NUTS2016_3": "ITH32", "NUTS2016_2": "ITH3", "NUTS2016_1": "ITH", "NUTS2016_0": "IT", "LAND_PC": 100.0, "X_LLC": 4434000, "NUTS2021_3": "ITH32", "NUTS2021_2": "ITH3", "DIST_COAST": 73168.078125, "NUTS2021_1": "ITH", "NUTS2021_0": "IT", "NUTS2024_3": "ITH32", "NUTS2024_2": "ITH3", "NUTS2024_1": "ITH", "NUTS2024_0": "IT", "codistat": "24085", "nomcom": "Roana", "provincia": "VI", "area": 78485335.906073868, "perimetro": 56752.784, "id1": 488 }, "geometry": { "type": "Point", "coordinates": [ 11.465753569533355, 45.845674047342179 ] } },
{ "type": "Feature", "properties": { "DIST_BORD": 105131.7109375, "TOT_P_2018": 198.0, "TOT_P_2006": 291.0, "GRD_ID": "CRS3035RES2000mN2528000E4432000", "TOT_P_2011": 209.0, "TOT_P_2021": 218.0, "Y_LLC": 2528000, "CNTR_ID": "IT", "NUTS2016_3": "ITH32", "NUTS2016_2": "ITH3", "NUTS2016_1": "ITH", "NUTS2016_0": "IT", "LAND_PC": 100.0, "X_LLC": 4432000, "NUTS2021_3": "ITH32", "NUTS2021_2": "ITH3", "DIST_COAST": 75993.4609375, "NUTS2021_1": "ITH", "NUTS2021_0": "IT", "NUTS2024_3": "ITH32", "NUTS2024_2": "ITH3", "NUTS2024_1": "ITH", "NUTS2024_0": "IT", "codistat": "24085", "nomcom": "Roana", "provincia": "VI", "area": 78485335.906073868, "perimetro": 56752.784, "id1": 488 }, "geometry": { "type": "Point", "coordinates": [ 11.440520969976269, 45.864039469512825 ] } },
{ "type": "Feature", "properties": { "DIST_BORD": 105792.453125, "TOT_P_2018": 1087.0, "TOT_P_2006": 798.0, "GRD_ID": "CRS3035RES2000mN2528000E4434000", "TOT_P_2011": 1039.0, "TOT_P_2021": 978.0, "Y_LLC": 2528000, "CNTR_ID": "IT", "NUTS2016_3": "ITH32", "NUTS2016_2": "ITH3", "NUTS2016_1": "ITH", "NUTS2016_0": "IT", "LAND_PC": 100.0, "X_LLC": 4434000, "NUTS2021_3": "ITH32", "NUTS2021_2": "ITH3", "DIST_COAST": 74528.46875, "NUTS2021_1": "ITH", "NUTS2021_0": "IT", "NUTS2024_3": "ITH32", "NUTS2024_2": "ITH3", "NUTS2024_1": "ITH", "NUTS2024_0": "IT", "codistat": "24085", "nomcom": "Roana", "provincia": "VI", "area": 78485335.906073868, "perimetro": 56752.784, "id1": 488 }, "geometry": { "type": "Point", "coordinates": [ 11.466238844044213, 45.863687808528951 ] } },
{ "type": "Feature", "properties": { "DIST_BORD": 103240.171875, "TOT_P_2018": 309.0, "TOT_P_2006": 248.0, "GRD_ID": "CRS3035RES2000mN2530000E4432000", "TOT_P_2011": 321.0, "TOT_P_2021": 203.0, "Y_LLC": 2530000, "CNTR_ID": "IT", "NUTS2016_3": "ITH32", "NUTS2016_2": "ITH3", "NUTS2016_1": "ITH", "NUTS2016_0": "IT", "LAND_PC": 100.0, "X_LLC": 4432000, "NUTS2021_3": "ITH32", "NUTS2021_2": "ITH3", "DIST_COAST": 77355.859375, "NUTS2021_1": "ITH", "NUTS2021_0": "IT", "NUTS2024_3": "ITH32", "NUTS2024_2": "ITH3", "NUTS2024_1": "ITH", "NUTS2024_0": "IT", "codistat": "24085", "nomcom": "Roana", "provincia": "VI", "area": 78485335.906073868, "perimetro": 56752.784, "id1": 488 }, "geometry": { "type": "Point", "coordinates": [ 11.440998148897441, 45.882053159600275 ] } },
{ "type": "Feature", "properties": { "DIST_BORD": 103912.9296875, "TOT_P_2018": 629.0, "TOT_P_2006": 704.0, "GRD_ID": "CRS3035RES2000mN2530000E4434000", "TOT_P_2011": 661.0, "TOT_P_2021": 762.0, "Y_LLC": 2530000, "CNTR_ID": "IT", "NUTS2016_3": "ITH32", "NUTS2016_2": "ITH3", "NUTS2016_1": "ITH", "NUTS2016_0": "IT", "LAND_PC": 100.0, "X_LLC": 4434000, "NUTS2021_3": "ITH32", "NUTS2021_2": "ITH3", "DIST_COAST": 75917.15625, "NUTS2021_1": "ITH", "NUTS2021_0": "IT", "NUTS2024_3": "ITH32", "NUTS2024_2": "ITH3", "NUTS2024_1": "ITH", "NUTS2024_0": "IT", "codistat": "24085", "nomcom": "Roana", "provincia": "VI", "area": 78485335.906073868, "perimetro": 56752.784, "id1": 488 }, "geometry": { "type": "Point", "coordinates": [ 11.466724536454668, 45.881701363897925 ] } },
{ "type": "Feature", "properties": { "DIST_BORD": 103390.6875, "TOT_P_2018": 410.0, "TOT_P_2006": 460.0, "GRD_ID": "CRS3035RES2000mN2528000E4428000", "TOT_P_2011": 422.0, "TOT_P_2021": 382.0, "Y_LLC": 2528000, "CNTR_ID": "IT", "NUTS2016_3": "ITH32", "NUTS2016_2": "ITH3", "NUTS2016_1": "ITH", "NUTS2016_0": "IT", "LAND_PC": 100.0, "X_LLC": 4428000, "NUTS2021_3": "ITH32", "NUTS2021_2": "ITH3", "DIST_COAST": 78993.8828125, "NUTS2021_1": "ITH", "NUTS2021_0": "IT", "NUTS2024_3": "ITH32", "NUTS2024_2": "ITH3", "NUTS2024_1": "ITH", "NUTS2024_0": "IT", "codistat": "24089", "nomcom": "Rotzo", "provincia": "VI", "area": 28248612.20043565, "perimetro": 36220.341, "id1": 486 }, "geometry": { "type": "Point", "coordinates": [ 11.389084333163497, 45.864724125493289 ] } },
{ "type": "Feature", "properties": { "DIST_BORD": 104505.078125, "TOT_P_2018": 267.0, "TOT_P_2006": 144.0, "GRD_ID": "CRS3035RES2000mN2528000E4430000", "TOT_P_2011": 218.0, "TOT_P_2021": 252.0, "Y_LLC": 2528000, "CNTR_ID": "IT", "NUTS2016_3": "ITH32", "NUTS2016_2": "ITH3", "NUTS2016_1": "ITH", "NUTS2016_0": "IT", "LAND_PC": 100.0, "X_LLC": 4430000, "NUTS2021_3": "ITH32", "NUTS2021_2": "ITH3", "DIST_COAST": 77482.3828125, "NUTS2021_1": "ITH", "NUTS2021_0": "IT", "NUTS2024_3": "ITH32", "NUTS2024_2": "ITH3", "NUTS2024_1": "ITH", "NUTS2024_0": "IT", "codistat": "24089", "nomcom": "Rotzo", "provincia": "VI", "area": 28248612.20043565, "perimetro": 36220.341, "id1": 486 }, "geometry": { "type": "Point", "coordinates": [ 11.414802797919753, 45.864384908520037 ] } },
{ "type": "Feature", "properties": { "DIST_BORD": 110994.78125, "TOT_P_2018": 1337.0, "TOT_P_2006": 1213.0, "GRD_ID": "CRS3035RES2000mN2524000E4454000", "TOT_P_2011": 1473.0, "TOT_P_2021": 1299.0, "Y_LLC": 2524000, "CNTR_ID": "IT", "NUTS2016_3": "ITH32-ITH34", "NUTS2016_2": "ITH3", "NUTS2016_1": "ITH", "NUTS2016_0": "IT", "LAND_PC": 100.0, "X_LLC": 4454000, "NUTS2021_3": "ITH32-ITH34", "NUTS2021_2": "ITH3", "DIST_COAST": 57973.671875, "NUTS2021_1": "ITH", "NUTS2021_0": "IT", "NUTS2024_3": "ITH32-ITH34", "NUTS2024_2": "ITH3", "NUTS2024_1": "ITH", "NUTS2024_0": "IT", "codistat": "24101", "nomcom": "Solagna", "provincia": "VI", "area": 15861387.595834177, "perimetro": 27937.539, "id1": 455 }, "geometry": { "type": "Point", "coordinates": [ 11.722259889905589, 45.823804243327338 ] } },
{ "type": "Feature", "properties": { "DIST_BORD": 109241.546875, "TOT_P_2018": 19.0, "TOT_P_2006": 0.0, "GRD_ID": "CRS3035RES2000mN2526000E4454000", "TOT_P_2011": 19.0, "TOT_P_2021": 22.0, "Y_LLC": 2526000, "CNTR_ID": "IT", "NUTS2016_3": "ITH32-ITH34", "NUTS2016_2": "ITH3", "NUTS2016_1": "ITH", "NUTS2016_0": "IT", "LAND_PC": 100.0, "X_LLC": 4454000, "NUTS2021_3": "ITH32-ITH34", "NUTS2021_2": "ITH3", "DIST_COAST": 59278.5703125, "NUTS2021_1": "ITH", "NUTS2021_0": "IT", "NUTS2024_3": "ITH32-ITH34", "NUTS2024_2": "ITH3", "NUTS2024_1": "ITH", "NUTS2024_0": "IT", "codistat": "24101", "nomcom": "Solagna", "provincia": "VI", "area": 15861387.595834177, "perimetro": 27937.539, "id1": 455 }, "geometry": { "type": "Point", "coordinates": [ 11.722829712620012, 45.841816735024217 ] } },
{ "type": "Feature", "properties": { "DIST_BORD": 107496.9375, "TOT_P_2018": 8.0, "TOT_P_2006": 0.0, "GRD_ID": "CRS3035RES2000mN2528000E4454000", "TOT_P_2011": 9.0, "TOT_P_2021": 21.0, "Y_LLC": 2528000, "CNTR_ID": "IT", "NUTS2016_3": "ITH32-ITH34", "NUTS2016_2": "ITH3", "NUTS2016_1": "ITH", "NUTS2016_0": "IT", "LAND_PC": 100.0, "X_LLC": 4454000, "NUTS2021_3": "ITH32-ITH34", "NUTS2021_2": "ITH3", "DIST_COAST": 60621.37109375, "NUTS2021_1": "ITH", "NUTS2021_0": "IT", "NUTS2024_3": "ITH32-ITH34", "NUTS2024_2": "ITH3", "NUTS2024_1": "ITH", "NUTS2024_0": "IT", "codistat": "24101", "nomcom": "Solagna", "provincia": "VI", "area": 15861387.595834177, "perimetro": 27937.539, "id1": 455 }, "geometry": { "type": "Point", "coordinates": [ 11.72340002578238, 45.859829019061856 ] } },
{ "type": "Feature", "properties": { "DIST_BORD": 111963.3203125, "TOT_P_2018": 691.0, "TOT_P_2006": 617.0, "GRD_ID": "CRS3035RES2000mN2524000E4452000", "TOT_P_2011": 756.0, "TOT_P_2021": 728.0, "Y_LLC": 2524000, "CNTR_ID": "IT", "NUTS2016_3": "ITH32", "NUTS2016_2": "ITH3", "NUTS2016_1": "ITH", "NUTS2016_0": "IT", "LAND_PC": 100.0, "X_LLC": 4452000, "NUTS2021_3": "ITH32", "NUTS2021_2": "ITH3", "DIST_COAST": 59464.46875, "NUTS2021_1": "ITH", "NUTS2021_0": "IT", "NUTS2024_3": "ITH32", "NUTS2024_2": "ITH3", "NUTS2024_1": "ITH", "NUTS2024_0": "IT", "codistat": "24125", "nomcom": "Valbrenta", "provincia": "VI", "area": 93241802.858930856, "perimetro": 82705.629, "id1": 581 }, "geometry": { "type": "Point", "coordinates": [ 11.696562284458158, 45.82421780019979 ] } },
{ "type": "Feature", "properties": { "DIST_BORD": 111235.9296875, "TOT_P_2018": 791.0, "TOT_P_2006": 396.0, "GRD_ID": "CRS3035RES2000mN2526000E4450000", "TOT_P_2011": 785.0, "TOT_P_2021": 754.0, "Y_LLC": 2526000, "CNTR_ID": "IT", "NUTS2016_3": "ITH32", "NUTS2016_2": "ITH3", "NUTS2016_1": "ITH", "NUTS2016_0": "IT", "LAND_PC": 100.0, "X_LLC": 4450000, "NUTS2021_3": "ITH32", "NUTS2021_2": "ITH3", "DIST_COAST": 62269.26171875, "NUTS2021_1": "ITH", "NUTS2021_0": "IT", "NUTS2024_3": "ITH32", "NUTS2024_2": "ITH3", "NUTS2024_1": "ITH", "NUTS2024_0": "IT", "codistat": "24125", "nomcom": "Valbrenta", "provincia": "VI", "area": 93241802.858930856, "perimetro": 82705.629, "id1": 581 }, "geometry": { "type": "Point", "coordinates": [ 11.671417161885522, 45.842637947046356 ] } },
{ "type": "Feature", "properties": { "DIST_BORD": 110225.5, "TOT_P_2018": 791.0, "TOT_P_2006": 891.0, "GRD_ID": "CRS3035RES2000mN2526000E4452000", "TOT_P_2011": 804.0, "TOT_P_2021": 649.0, "Y_LLC": 2526000, "CNTR_ID": "IT", "NUTS2016_3": "ITH32", "NUTS2016_2": "ITH3", "NUTS2016_1": "ITH", "NUTS2016_0": "IT", "LAND_PC": 100.0, "X_LLC": 4452000, "NUTS2021_3": "ITH32", "NUTS2021_2": "ITH3", "DIST_COAST": 60791.76171875, "NUTS2021_1": "ITH", "NUTS2021_0": "IT", "NUTS2024_3": "ITH32", "NUTS2024_2": "ITH3", "NUTS2024_1": "ITH", "NUTS2024_0": "IT", "codistat": "24125", "nomcom": "Valbrenta", "provincia": "VI", "area": 93241802.858930856, "perimetro": 82705.629, "id1": 581 }, "geometry": { "type": "Point", "coordinates": [ 11.697123612574513, 45.842230450171193 ] } },
{ "type": "Feature", "properties": { "DIST_BORD": 110436.5390625, "TOT_P_2018": 327.0, "TOT_P_2006": 29.0, "GRD_ID": "CRS3035RES2000mN2528000E4446000", "TOT_P_2011": 276.0, "TOT_P_2021": 272.0, "Y_LLC": 2528000, "CNTR_ID": "IT", "NUTS2016_3": "ITH32", "NUTS2016_2": "ITH3", "NUTS2016_1": "ITH", "NUTS2016_0": "IT", "LAND_PC": 100.0, "X_LLC": 4446000, "NUTS2021_3": "ITH32", "NUTS2021_2": "ITH3", "DIST_COAST": 66328.0625, "NUTS2021_1": "ITH", "NUTS2021_0": "IT", "NUTS2024_3": "ITH32", "NUTS2024_2": "ITH3", "NUTS2024_1": "ITH", "NUTS2024_0": "IT", "codistat": "24125", "nomcom": "Valbrenta", "provincia": "VI", "area": 93241802.858930856, "perimetro": 82705.629, "id1": 581 }, "geometry": { "type": "Point", "coordinates": [ 11.620539532760869, 45.861447188782307 ] } },
{ "type": "Feature", "properties": { "DIST_BORD": 110512.9921875, "TOT_P_2018": 366.0, "TOT_P_2006": 787.0, "GRD_ID": "CRS3035RES2000mN2528000E4448000", "TOT_P_2011": 402.0, "TOT_P_2021": 334.0, "Y_LLC": 2528000, "CNTR_ID": "IT", "NUTS2016_3": "ITH32", "NUTS2016_2": "ITH3", "NUTS2016_1": "ITH", "NUTS2016_0": "IT", "LAND_PC": 100.0, "X_LLC": 4448000, "NUTS2021_3": "ITH32", "NUTS2021_2": "ITH3", "DIST_COAST": 65076.08984375, "NUTS2021_1": "ITH", "NUTS2021_0": "IT", "NUTS2024_3": "ITH32", "NUTS2024_2": "ITH3", "NUTS2024_1": "ITH", "NUTS2024_0": "IT", "codistat": "24125", "nomcom": "Valbrenta", "provincia": "VI", "area": 93241802.858930856, "perimetro": 82705.629, "id1": 581 }, "geometry": { "type": "Point", "coordinates": [ 11.646255172030134, 45.861051977645062 ] } },
{ "type": "Feature", "properties": { "DIST_BORD": 109499.3984375, "TOT_P_2018": 831.0, "TOT_P_2006": 1795.0, "GRD_ID": "CRS3035RES2000mN2528000E4450000", "TOT_P_2011": 823.0, "TOT_P_2021": 752.0, "Y_LLC": 2528000, "CNTR_ID": "IT", "NUTS2016_3": "ITH32", "NUTS2016_2": "ITH3", "NUTS2016_1": "ITH", "NUTS2016_0": "IT", "LAND_PC": 100.0, "X_LLC": 4450000, "NUTS2021_3": "ITH32", "NUTS2021_2": "ITH3", "DIST_COAST": 63610.76171875, "NUTS2021_1": "ITH", "NUTS2021_0": "IT", "NUTS2024_3": "ITH32", "NUTS2024_2": "ITH3", "NUTS2024_1": "ITH", "NUTS2024_0": "IT", "codistat": "24125", "nomcom": "Valbrenta", "provincia": "VI", "area": 93241802.858930856, "perimetro": 82705.629, "id1": 581 }, "geometry": { "type": "Point", "coordinates": [ 11.671970470850123, 45.860650545540388 ] } },
{ "type": "Feature", "properties": { "DIST_BORD": 107772.0, "TOT_P_2018": 475.0, "TOT_P_2006": 1.0, "GRD_ID": "CRS3035RES2000mN2530000E4450000", "TOT_P_2011": 554.0, "TOT_P_2021": 454.0, "Y_LLC": 2530000, "CNTR_ID": "IT", "NUTS2016_3": "ITH32", "NUTS2016_2": "ITH3", "NUTS2016_1": "ITH", "NUTS2016_0": "IT", "LAND_PC": 100.0, "X_LLC": 4450000, "NUTS2021_3": "ITH32", "NUTS2021_2": "ITH3", "DIST_COAST": 64925.578125, "NUTS2021_1": "ITH", "NUTS2021_0": "IT", "NUTS2024_3": "ITH32", "NUTS2024_2": "ITH3", "NUTS2024_1": "ITH", "NUTS2024_0": "IT", "codistat": "24125", "nomcom": "Valbrenta", "provincia": "VI", "area": 93241802.858930856, "perimetro": 82705.629, "id1": 581 }, "geometry": { "type": "Point", "coordinates": [ 11.672524256251794, 45.878662937122385 ] } },
{ "type": "Feature", "properties": { "DIST_BORD": 105761.3828125, "TOT_P_2018": 15.0, "TOT_P_2006": 9.0, "GRD_ID": "CRS3035RES2000mN2530000E4454000", "TOT_P_2011": 19.0, "TOT_P_2021": 27.0, "Y_LLC": 2530000, "CNTR_ID": "IT", "NUTS2016_3": "ITH32", "NUTS2016_2": "ITH3", "NUTS2016_1": "ITH", "NUTS2016_0": "IT", "LAND_PC": 100.0, "X_LLC": 4454000, "NUTS2021_3": "ITH32", "NUTS2021_2": "ITH3", "DIST_COAST": 61999.62109375, "NUTS2021_1": "ITH", "NUTS2021_0": "IT", "NUTS2024_3": "ITH32", "NUTS2024_2": "ITH3", "NUTS2024_1": "ITH", "NUTS2024_0": "IT", "codistat": "24125", "nomcom": "Valbrenta", "provincia": "VI", "area": 93241802.858930856, "perimetro": 82705.629, "id1": 581 }, "geometry": { "type": "Point", "coordinates": [ 11.723970829994816, 45.877841095914327 ] } },
{ "type": "Feature", "properties": { "DIST_BORD": 105035.640625, "TOT_P_2018": 306.0, "TOT_P_2006": 57.0, "GRD_ID": "CRS3035RES2000mN2532000E4452000", "TOT_P_2011": 303.0, "TOT_P_2021": 342.0, "Y_LLC": 2532000, "CNTR_ID": "IT", "NUTS2016_3": "ITH32", "NUTS2016_2": "ITH3", "NUTS2016_1": "ITH", "NUTS2016_0": "IT", "LAND_PC": 100.0, "X_LLC": 4452000, "NUTS2021_3": "ITH32", "NUTS2021_2": "ITH3", "DIST_COAST": 64827.80078125, "NUTS2021_1": "ITH", "NUTS2021_0": "IT", "NUTS2024_3": "ITH32", "NUTS2024_2": "ITH3", "NUTS2024_1": "ITH", "NUTS2024_0": "IT", "codistat": "24125", "nomcom": "Valbrenta", "provincia": "VI", "area": 93241802.858930856, "perimetro": 82705.629, "id1": 581 }, "geometry": { "type": "Point", "coordinates": [ 11.698810498279416, 45.896267156801869 ] } },
{ "type": "Feature", "properties": { "DIST_BORD": 102304.2890625, "TOT_P_2018": 557.0, "TOT_P_2006": 810.0, "GRD_ID": "CRS3035RES2000mN2534000E4454000", "TOT_P_2011": 549.0, "TOT_P_2021": 502.0, "Y_LLC": 2534000, "CNTR_ID": "IT", "NUTS2016_3": "ITH32-ITH33", "NUTS2016_2": "ITH3", "NUTS2016_1": "ITH", "NUTS2016_0": "IT", "LAND_PC": 100.0, "X_LLC": 4454000, "NUTS2021_3": "ITH32-ITH33", "NUTS2021_2": "ITH3", "DIST_COAST": 64853.3515625, "NUTS2021_1": "ITH", "NUTS2021_0": "IT", "NUTS2024_3": "ITH32-ITH33", "NUTS2024_2": "ITH3", "NUTS2024_1": "ITH", "NUTS2024_0": "IT", "codistat": "24125", "nomcom": "Valbrenta", "provincia": "VI", "area": 93241802.858930856, "perimetro": 82705.629, "id1": 581 }, "geometry": { "type": "Point", "coordinates": [ 11.725113914017387, 45.913864629734398 ] } },
{ "type": "Feature", "properties": { "DIST_BORD": 100572.6328125, "TOT_P_2018": 254.0, "TOT_P_2006": 364.0, "GRD_ID": "CRS3035RES2000mN2536000E4454000", "TOT_P_2011": 237.0, "TOT_P_2021": 299.0, "Y_LLC": 2536000, "CNTR_ID": "IT", "NUTS2016_3": "ITH32-ITH33", "NUTS2016_2": "ITH3", "NUTS2016_1": "ITH", "NUTS2016_0": "IT", "LAND_PC": 100.0, "X_LLC": 4454000, "NUTS2021_3": "ITH32-ITH33", "NUTS2021_2": "ITH3", "DIST_COAST": 66324.6484375, "NUTS2021_1": "ITH", "NUTS2021_0": "IT", "NUTS2024_3": "ITH32-ITH33", "NUTS2024_2": "ITH3", "NUTS2024_1": "ITH", "NUTS2024_0": "IT", "codistat": "24125", "nomcom": "Valbrenta", "provincia": "VI", "area": 93241802.858930856, "perimetro": 82705.629, "id1": 581 }, "geometry": { "type": "Point", "coordinates": [ 11.725686194995037, 45.931876087618704 ] } },
{ "type": "Feature", "properties": { "DIST_BORD": 99574.8515625, "TOT_P_2018": 24.0, "TOT_P_2006": 4.0, "GRD_ID": "CRS3035RES2000mN2536000E4456000", "TOT_P_2011": 27.0, "TOT_P_2021": 20.0, "Y_LLC": 2536000, "CNTR_ID": "IT", "NUTS2016_3": "ITH32-ITH33", "NUTS2016_2": "ITH3", "NUTS2016_1": "ITH", "NUTS2016_0": "IT", "LAND_PC": 98.370002746582031, "X_LLC": 4456000, "NUTS2021_3": "ITH32-ITH33", "NUTS2021_2": "ITH3", "DIST_COAST": 65002.0703125, "NUTS2021_1": "ITH", "NUTS2021_0": "IT", "NUTS2024_3": "ITH32-ITH33", "NUTS2024_2": "ITH3", "NUTS2024_1": "ITH", "NUTS2024_0": "IT", "codistat": "24125", "nomcom": "Valbrenta", "provincia": "VI", "area": 93241802.858930856, "perimetro": 82705.629, "id1": 581 }, "geometry": { "type": "Point", "coordinates": [ 11.751434519215639, 45.931455348873939 ] } },
{ "type": "Feature", "properties": { "DIST_BORD": 98199.9296875, "TOT_P_2018": 226.0, "TOT_P_2006": 17.0, "GRD_ID": "CRS3035RES2000mN2540000E4452000", "TOT_P_2011": 286.0, "TOT_P_2021": 250.0, "Y_LLC": 2540000, "CNTR_ID": "IT", "NUTS2016_3": "ITH20-ITH32-ITH33", "NUTS2016_2": "ITH2-ITH3", "NUTS2016_1": "ITH", "NUTS2016_0": "IT", "LAND_PC": 100.0, "X_LLC": 4452000, "NUTS2021_3": "ITH20-ITH32-ITH33", "NUTS2021_2": "ITH2-ITH3", "DIST_COAST": 70644.546875, "NUTS2021_1": "ITH", "NUTS2021_0": "IT", "NUTS2024_3": "ITH20-ITH32-ITH33", "NUTS2024_2": "ITH2-ITH3", "NUTS2024_1": "ITH", "NUTS2024_0": "IT", "codistat": "24125", "nomcom": "Valbrenta", "provincia": "VI", "area": 93241802.858930856, "perimetro": 82705.629, "id1": 581 }, "geometry": { "type": "Point", "coordinates": [ 11.701066470954627, 45.968313214650912 ] } },
{ "type": "Feature", "properties": { "DIST_BORD": 117984.0, "TOT_P_2018": 655.0, "TOT_P_2006": 982.0, "GRD_ID": "CRS3035RES2000mN2518000E4442000", "TOT_P_2011": 672.0, "TOT_P_2021": 639.0, "Y_LLC": 2518000, "CNTR_ID": "IT", "NUTS2016_3": "ITH32", "NUTS2016_2": "ITH3", "NUTS2016_1": "ITH", "NUTS2016_0": "IT", "LAND_PC": 100.0, "X_LLC": 4442000, "NUTS2021_3": "ITH32", "NUTS2021_2": "ITH3", "DIST_COAST": 61869.37109375, "NUTS2021_1": "ITH", "NUTS2021_0": "IT", "NUTS2024_3": "ITH32", "NUTS2024_2": "ITH3", "NUTS2024_1": "ITH", "NUTS2024_0": "IT", "codistat": "24127", "nomcom": "Lusiana Conco", "provincia": "VI", "area": 61120860.275440983, "perimetro": 40199.912, "id1": 583 }, "geometry": { "type": "Point", "coordinates": [ 11.566515239077017, 45.772150880332994 ] } },
{ "type": "Feature", "properties": { "DIST_BORD": 118741.6875, "TOT_P_2018": 385.0, "TOT_P_2006": 408.0, "GRD_ID": "CRS3035RES2000mN2518000E4444000", "TOT_P_2011": 380.0, "TOT_P_2021": 372.0, "Y_LLC": 2518000, "CNTR_ID": "IT", "NUTS2016_3": "ITH32", "NUTS2016_2": "ITH3", "NUTS2016_1": "ITH", "NUTS2016_0": "IT", "LAND_PC": 100.0, "X_LLC": 4444000, "NUTS2021_3": "ITH32", "NUTS2021_2": "ITH3", "DIST_COAST": 60392.9296875, "NUTS2021_1": "ITH", "NUTS2021_0": "IT", "NUTS2024_3": "ITH32", "NUTS2024_2": "ITH3", "NUTS2024_1": "ITH", "NUTS2024_0": "IT", "codistat": "24127", "nomcom": "Lusiana Conco", "provincia": "VI", "area": 61120860.275440983, "perimetro": 40199.912, "id1": 583 }, "geometry": { "type": "Point", "coordinates": [ 11.59218909585066, 45.771768842808157 ] } },
{ "type": "Feature", "properties": { "DIST_BORD": 116129.578125, "TOT_P_2018": 921.0, "TOT_P_2006": 1035.0, "GRD_ID": "CRS3035RES2000mN2520000E4442000", "TOT_P_2011": 915.0, "TOT_P_2021": 848.0, "Y_LLC": 2520000, "CNTR_ID": "IT", "NUTS2016_3": "ITH32", "NUTS2016_2": "ITH3", "NUTS2016_1": "ITH", "NUTS2016_0": "IT", "LAND_PC": 100.0, "X_LLC": 4442000, "NUTS2021_3": "ITH32", "NUTS2021_2": "ITH3", "DIST_COAST": 63219.80078125, "NUTS2021_1": "ITH", "NUTS2021_0": "IT", "NUTS2024_3": "ITH32", "NUTS2024_2": "ITH3", "NUTS2024_1": "ITH", "NUTS2024_0": "IT", "codistat": "24127", "nomcom": "Lusiana Conco", "provincia": "VI", "area": 61120860.275440983, "perimetro": 40199.912, "id1": 583 }, "geometry": { "type": "Point", "coordinates": [ 11.567032750971125, 45.790164909303343 ] } },
{ "type": "Feature", "properties": { "DIST_BORD": 116899.2890625, "TOT_P_2018": 824.0, "TOT_P_2006": 710.0, "GRD_ID": "CRS3035RES2000mN2520000E4444000", "TOT_P_2011": 840.0, "TOT_P_2021": 701.0, "Y_LLC": 2520000, "CNTR_ID": "IT", "NUTS2016_3": "ITH32", "NUTS2016_2": "ITH3", "NUTS2016_1": "ITH", "NUTS2016_0": "IT", "LAND_PC": 100.0, "X_LLC": 4444000, "NUTS2021_3": "ITH32", "NUTS2021_2": "ITH3", "DIST_COAST": 61775.640625, "NUTS2021_1": "ITH", "NUTS2021_0": "IT", "NUTS2024_3": "ITH32", "NUTS2024_2": "ITH3", "NUTS2024_1": "ITH", "NUTS2024_0": "IT", "codistat": "24127", "nomcom": "Lusiana Conco", "provincia": "VI", "area": 61120860.275440983, "perimetro": 40199.912, "id1": 583 }, "geometry": { "type": "Point", "coordinates": [ 11.592715082613347, 45.789782725779148 ] } },
{ "type": "Feature", "properties": { "DIST_BORD": 117697.9609375, "TOT_P_2018": 485.0, "TOT_P_2006": 227.0, "GRD_ID": "CRS3035RES2000mN2520000E4446000", "TOT_P_2011": 511.0, "TOT_P_2021": 473.0, "Y_LLC": 2520000, "CNTR_ID": "IT", "NUTS2016_3": "ITH32", "NUTS2016_2": "ITH3", "NUTS2016_1": "ITH", "NUTS2016_0": "IT", "LAND_PC": 100.0, "X_LLC": 4446000, "NUTS2021_3": "ITH32", "NUTS2021_2": "ITH3", "DIST_COAST": 60363.19921875, "NUTS2021_1": "ITH", "NUTS2021_0": "IT", "NUTS2024_3": "ITH32", "NUTS2024_2": "ITH3", "NUTS2024_1": "ITH", "NUTS2024_0": "IT", "codistat": "24127", "nomcom": "Lusiana Conco", "provincia": "VI", "area": 61120860.275440983, "perimetro": 40199.912, "id1": 583 }, "geometry": { "type": "Point", "coordinates": [ 11.618397086212696, 45.789394330530712 ] } },
{ "type": "Feature", "properties": { "DIST_BORD": 117421.9921875, "TOT_P_2018": 170.0, "TOT_P_2006": 33.0, "GRD_ID": "CRS3035RES2000mN2520000E4448000", "TOT_P_2011": 215.0, "TOT_P_2021": 206.0, "Y_LLC": 2520000, "CNTR_ID": "IT", "NUTS2016_3": "ITH32", "NUTS2016_2": "ITH3", "NUTS2016_1": "ITH", "NUTS2016_0": "IT", "LAND_PC": 100.0, "X_LLC": 4448000, "NUTS2021_3": "ITH32", "NUTS2021_2": "ITH3", "DIST_COAST": 58984.76171875, "NUTS2021_1": "ITH", "NUTS2021_0": "IT", "NUTS2024_3": "ITH32", "NUTS2024_2": "ITH3", "NUTS2024_1": "ITH", "NUTS2024_0": "IT", "codistat": "24127", "nomcom": "Lusiana Conco", "provincia": "VI", "area": 61120860.275440983, "perimetro": 40199.912, "id1": 583 }, "geometry": { "type": "Point", "coordinates": [ 11.644078756397395, 45.788999723722405 ] } },
{ "type": "Feature", "properties": { "DIST_BORD": 113527.84375, "TOT_P_2018": 20.0, "TOT_P_2006": 0.0, "GRD_ID": "CRS3035RES2000mN2522000E4440000", "TOT_P_2011": 18.0, "TOT_P_2021": 17.0, "Y_LLC": 2522000, "CNTR_ID": "IT", "NUTS2016_3": "ITH32", "NUTS2016_2": "ITH3", "NUTS2016_1": "ITH", "NUTS2016_0": "IT", "LAND_PC": 100.0, "X_LLC": 4440000, "NUTS2021_3": "ITH32", "NUTS2021_2": "ITH3", "DIST_COAST": 66046.796875, "NUTS2021_1": "ITH", "NUTS2021_0": "IT", "NUTS2024_3": "ITH32", "NUTS2024_2": "ITH3", "NUTS2024_1": "ITH", "NUTS2024_0": "IT", "codistat": "24127", "nomcom": "Lusiana Conco", "provincia": "VI", "area": 61120860.275440983, "perimetro": 40199.912, "id1": 583 }, "geometry": { "type": "Point", "coordinates": [ 11.54185957058378, 45.808554845506407 ] } },
{ "type": "Feature", "properties": { "DIST_BORD": 114280.0703125, "TOT_P_2018": 6.0, "TOT_P_2006": 11.0, "GRD_ID": "CRS3035RES2000mN2522000E4442000", "TOT_P_2011": 5.0, "TOT_P_2021": 2.0, "Y_LLC": 2522000, "CNTR_ID": "IT", "NUTS2016_3": "ITH32", "NUTS2016_2": "ITH3", "NUTS2016_1": "ITH", "NUTS2016_0": "IT", "LAND_PC": 100.0, "X_LLC": 4442000, "NUTS2021_3": "ITH32", "NUTS2021_2": "ITH3", "DIST_COAST": 64603.921875, "NUTS2021_1": "ITH", "NUTS2021_0": "IT", "NUTS2024_3": "ITH32", "NUTS2024_2": "ITH3", "NUTS2024_1": "ITH", "NUTS2024_0": "IT", "codistat": "24127", "nomcom": "Lusiana Conco", "provincia": "VI", "area": 61120860.275440983, "perimetro": 40199.912, "id1": 583 }, "geometry": { "type": "Point", "coordinates": [ 11.567550707856238, 45.808178730016934 ] } },
{ "type": "Feature", "properties": { "DIST_BORD": 115062.1484375, "TOT_P_2018": 292.0, "TOT_P_2006": 353.0, "GRD_ID": "CRS3035RES2000mN2522000E4444000", "TOT_P_2011": 304.0, "TOT_P_2021": 242.0, "Y_LLC": 2522000, "CNTR_ID": "IT", "NUTS2016_3": "ITH32", "NUTS2016_2": "ITH3", "NUTS2016_1": "ITH", "NUTS2016_0": "IT", "LAND_PC": 100.0, "X_LLC": 4444000, "NUTS2021_3": "ITH32", "NUTS2021_2": "ITH3", "DIST_COAST": 63191.3984375, "NUTS2021_1": "ITH", "NUTS2021_0": "IT", "NUTS2024_3": "ITH32", "NUTS2024_2": "ITH3", "NUTS2024_1": "ITH", "NUTS2024_0": "IT", "codistat": "24127", "nomcom": "Lusiana Conco", "provincia": "VI", "area": 61120860.275440983, "perimetro": 40199.912, "id1": 583 }, "geometry": { "type": "Point", "coordinates": [ 11.593241521700492, 45.807796400354306 ] } },
{ "type": "Feature", "properties": { "DIST_BORD": 115873.4765625, "TOT_P_2018": 681.0, "TOT_P_2006": 1019.0, "GRD_ID": "CRS3035RES2000mN2522000E4446000", "TOT_P_2011": 706.0, "TOT_P_2021": 716.0, "Y_LLC": 2522000, "CNTR_ID": "IT", "NUTS2016_3": "ITH32", "NUTS2016_2": "ITH3", "NUTS2016_1": "ITH", "NUTS2016_0": "IT", "LAND_PC": 100.0, "X_LLC": 4446000, "NUTS2021_3": "ITH32", "NUTS2021_2": "ITH3", "DIST_COAST": 61811.3203125, "NUTS2021_1": "ITH", "NUTS2021_0": "IT", "NUTS2024_3": "ITH32", "NUTS2024_2": "ITH3", "NUTS2024_1": "ITH", "NUTS2024_0": "IT", "codistat": "24127", "nomcom": "Lusiana Conco", "provincia": "VI", "area": 61120860.275440983, "perimetro": 40199.912, "id1": 583 }, "geometry": { "type": "Point", "coordinates": [ 11.618932007085625, 45.807407856626135 ] } },
{ "type": "Feature", "properties": { "DIST_BORD": 115697.0234375, "TOT_P_2018": 277.0, "TOT_P_2006": 168.0, "GRD_ID": "CRS3035RES2000mN2522000E4448000", "TOT_P_2011": 294.0, "TOT_P_2021": 294.0, "Y_LLC": 2522000, "CNTR_ID": "IT", "NUTS2016_3": "ITH32", "NUTS2016_2": "ITH3", "NUTS2016_1": "ITH", "NUTS2016_0": "IT", "LAND_PC": 100.0, "X_LLC": 4448000, "NUTS2021_3": "ITH32", "NUTS2021_2": "ITH3", "DIST_COAST": 60465.91015625, "NUTS2021_1": "ITH", "NUTS2021_0": "IT", "NUTS2024_3": "ITH32", "NUTS2024_2": "ITH3", "NUTS2024_1": "ITH", "NUTS2024_0": "IT", "codistat": "24127", "nomcom": "Lusiana Conco", "provincia": "VI", "area": 61120860.275440983, "perimetro": 40199.912, "id1": 583 }, "geometry": { "type": "Point", "coordinates": [ 11.644622158622747, 45.807013098944275 ] } },
{ "type": "Feature", "properties": { "DIST_BORD": 112435.7109375, "TOT_P_2018": 16.0, "TOT_P_2006": 0.0, "GRD_ID": "CRS3035RES2000mN2524000E4442000", "TOT_P_2011": 17.0, "TOT_P_2021": 19.0, "Y_LLC": 2524000, "CNTR_ID": "IT", "NUTS2016_3": "ITH32", "NUTS2016_2": "ITH3", "NUTS2016_1": "ITH", "NUTS2016_0": "IT", "LAND_PC": 100.0, "X_LLC": 4442000, "NUTS2021_3": "ITH32", "NUTS2021_2": "ITH3", "DIST_COAST": 66019.6171875, "NUTS2021_1": "ITH", "NUTS2021_0": "IT", "NUTS2024_3": "ITH32", "NUTS2024_2": "ITH3", "NUTS2024_1": "ITH", "NUTS2024_0": "IT", "codistat": "24127", "nomcom": "Lusiana Conco", "provincia": "VI", "area": 61120860.275440983, "perimetro": 40199.912, "id1": 583 }, "geometry": { "type": "Point", "coordinates": [ 11.568069110243112, 45.826192343070637 ] } },
{ "type": "Feature", "properties": { "DIST_BORD": 113230.5390625, "TOT_P_2018": 20.0, "TOT_P_2006": 34.0, "GRD_ID": "CRS3035RES2000mN2524000E4444000", "TOT_P_2011": 20.0, "TOT_P_2021": 21.0, "Y_LLC": 2524000, "CNTR_ID": "IT", "NUTS2016_3": "ITH32", "NUTS2016_2": "ITH3", "NUTS2016_1": "ITH", "NUTS2016_0": "IT", "LAND_PC": 100.0, "X_LLC": 4444000, "NUTS2021_3": "ITH32", "NUTS2021_2": "ITH3", "DIST_COAST": 64638.05078125, "NUTS2021_1": "ITH", "NUTS2021_0": "IT", "NUTS2024_3": "ITH32", "NUTS2024_2": "ITH3", "NUTS2024_1": "ITH", "NUTS2024_0": "IT", "codistat": "24127", "nomcom": "Lusiana Conco", "provincia": "VI", "area": 61120860.275440983, "perimetro": 40199.912, "id1": 583 }, "geometry": { "type": "Point", "coordinates": [ 11.593768413681358, 45.825809867135185 ] } },
{ "type": "Feature", "properties": { "DIST_BORD": 114054.8984375, "TOT_P_2018": 32.0, "TOT_P_2006": 196.0, "GRD_ID": "CRS3035RES2000mN2524000E4446000", "TOT_P_2011": 33.0, "TOT_P_2021": 38.0, "Y_LLC": 2524000, "CNTR_ID": "IT", "NUTS2016_3": "ITH32", "NUTS2016_2": "ITH3", "NUTS2016_1": "ITH", "NUTS2016_0": "IT", "LAND_PC": 100.0, "X_LLC": 4446000, "NUTS2021_3": "ITH32", "NUTS2021_2": "ITH3", "DIST_COAST": 63289.51953125, "NUTS2021_1": "ITH", "NUTS2021_0": "IT", "NUTS2024_3": "ITH32", "NUTS2024_2": "ITH3", "NUTS2024_1": "ITH", "NUTS2024_0": "IT", "codistat": "24127", "nomcom": "Lusiana Conco", "provincia": "VI", "area": 61120860.275440983, "perimetro": 40199.912, "id1": 583 }, "geometry": { "type": "Point", "coordinates": [ 11.619467388114554, 45.825421174762695 ] } }
]
}
